start=new Date('2022-07-06T00:00:00.000Z').valueOf();
sats=[{"PERIAPSIS":"546.049","EPHEMERIS_TYPE":"0","RCS_SIZE":"LARGE","OBJECT_TYPE":"PAYLOAD","OBJECT_ID":"2021-009AL","ECCENTRICITY":"0.00017080","MEAN_ANOMALY":"310.0222","COUNTRY_CODE":"US","SITE":"AFETR","APOAPSIS":"548.415","OBJECT_NAME":"STARLINK-1986","LAUNCH_DATE":"2021-02-04","REF_FRAME":"TEME","ARG_OF_PERICENTER":"50.0917","MEAN_MOTION_DDOT":"0.0000000000000","CLASSIFICATION_TYPE":"U","MEAN_MOTION":"15.06394082","GP_ID":"207452810","TIME_SYSTEM":"UTC","TLE_LINE1":"1 47582U 21009AL  22186.56203609 -.00000805  00000-0 -35152-4 0  9993","ELEMENT_SET_NO":"999","REV_AT_EPOCH":"7895","INCLINATION":"53.0556","TLE_LINE2":"2 47582  53.0556 291.1670 0001708  50.0917 310.0222 15.06394082 78953","DECAY_DATE":null,"PERIOD":"95.593","CENTER_NAME":"EARTH","RA_OF_ASC_NODE":"291.1670","MEAN_ELEMENT_THEORY":"SGP4","NORAD_CAT_ID":"47582","FILE":"3508045","MEAN_MOTION_DOT":"-0.00000805","BSTAR":"-0.00003515200000","EPOCH":"2022-07-05T13:29:19.918176","SEMIMAJOR_AXIS":"6925.367"},{"RCS_SIZE":"LARGE","OBJECT_TYPE":"PAYLOAD","ECCENTRICITY":"0.00013350","OBJECT_ID":"2021-009AM","MEAN_ANOMALY":"287.6677","PERIAPSIS":"546.309","EPHEMERIS_TYPE":"0","ARG_OF_PERICENTER":"72.4458","REF_FRAME":"TEME","MEAN_MOTION_DDOT":"0.0000000000000","CLASSIFICATION_TYPE":"U","MEAN_MOTION":"15.06393594","COUNTRY_CODE":"US","SITE":"AFETR","APOAPSIS":"548.158","OBJECT_NAME":"STARLINK-1987","LAUNCH_DATE":"2021-02-04","ELEMENT_SET_NO":"999","REV_AT_EPOCH":"7835","INCLINATION":"53.0557","DECAY_DATE":null,"TLE_LINE2":"2 47583  53.0557 291.2518 0001335  72.4458 287.6677 15.06393594 78355","PERIOD":"95.593","GP_ID":"207476884","TLE_LINE1":"1 47583U 21009AM  22186.53992364 -.00001058  00000-0 -52173-4 0  9997","TIME_SYSTEM":"UTC","MEAN_MOTION_DOT":"-0.00001058","BSTAR":"-0.00005217300000","EPOCH":"2022-07-05T12:57:29.402496","SEMIMAJOR_AXIS":"6925.368","MEAN_ELEMENT_THEORY":"SGP4","RA_OF_ASC_NODE":"291.2518","CENTER_NAME":"EARTH","NORAD_CAT_ID":"47583","FILE":"3508171"},{"RA_OF_ASC_NODE":"291.1487","MEAN_ELEMENT_THEORY":"SGP4","CENTER_NAME":"EARTH","NORAD_CAT_ID":"47585","FILE":"3508171","MEAN_MOTION_DOT":"0.00000068","BSTAR":"0.00002345000000","EPOCH":"2022-07-05T13:34:37.677504","SEMIMAJOR_AXIS":"6925.324","GP_ID":"207476138","TIME_SYSTEM":"UTC","TLE_LINE1":"1 47585U 21009AP  22186.56571386  .00000068  00000-0  23450-4 0  9993","ELEMENT_SET_NO":"999","REV_AT_EPOCH":"7835","INCLINATION":"53.0553","TLE_LINE2":"2 47585  53.0553 291.1487 0001735  53.3421 306.7728 15.06407983 78357","DECAY_DATE":null,"PERIOD":"95.592","COUNTRY_CODE":"US","SITE":"AFETR","OBJECT_NAME":"STARLINK-1989","APOAPSIS":"548.391","LAUNCH_DATE":"2021-02-04","ARG_OF_PERICENTER":"53.3421","REF_FRAME":"TEME","MEAN_MOTION_DDOT":"0.0000000000000","CLASSIFICATION_TYPE":"U","MEAN_MOTION":"15.06407983","PERIAPSIS":"545.988","EPHEMERIS_TYPE":"0","RCS_SIZE":"LARGE","OBJECT_TYPE":"PAYLOAD","ECCENTRICITY":"0.00017350","OBJECT_ID":"2021-009AP","MEAN_ANOMALY":"306.7728"},{"MEAN_ANOMALY":"291.4992","OBJECT_ID":"2021-009AQ","ECCENTRICITY":"0.00015710","OBJECT_TYPE":"PAYLOAD","RCS_SIZE":"LARGE","EPHEMERIS_TYPE":"0","PERIAPSIS":"546.153","MEAN_MOTION":"15.06391130","CLASSIFICATION_TYPE":"U","MEAN_MOTION_DDOT":"0.0000000000000","ARG_OF_PERICENTER":"68.6165","REF_FRAME":"TEME","LAUNCH_DATE":"2021-02-04","APOAPSIS":"548.329","OBJECT_NAME":"STARLINK-1990","SITE":"AFETR","COUNTRY_CODE":"US","PERIOD":"95.593","DECAY_DATE":null,"TLE_LINE2":"2 47586  53.0553 311.2200 0001571  68.6165 291.4992 15.06391130 78075","INCLINATION":"53.0553","REV_AT_EPOCH":"7807","ELEMENT_SET_NO":"999","TIME_SYSTEM":"UTC","TLE_LINE1":"1 47586U 21009AQ  22186.54913716 -.00000451  00000-0 -11409-4 0  9998","GP_ID":"207475887","SEMIMAJOR_AXIS":"6925.376","BSTAR":"-0.00001140900000","EPOCH":"2022-07-05T13:10:45.450624","MEAN_MOTION_DOT":"-0.00000451","FILE":"3508171","NORAD_CAT_ID":"47586","RA_OF_ASC_NODE":"311.2200","CENTER_NAME":"EARTH","MEAN_ELEMENT_THEORY":"SGP4"},{"SEMIMAJOR_AXIS":"6925.403","BSTAR":"0.00049511000000","EPOCH":"2022-07-05T13:04:07.958784","MEAN_MOTION_DOT":"0.00007097","MEAN_ELEMENT_THEORY":"SGP4","RA_OF_ASC_NODE":"281.2442","CENTER_NAME":"EARTH","FILE":"3508171","NORAD_CAT_ID":"47587","INCLINATION":"53.0537","REV_AT_EPOCH":"7849","ELEMENT_SET_NO":"999","PERIOD":"95.593","TLE_LINE2":"2 47587  53.0537 281.2442 0001462  69.8085 290.3061 15.06382273 78494","DECAY_DATE":null,"GP_ID":"207476639","TIME_SYSTEM":"UTC","TLE_LINE1":"1 47587U 21009AR  22186.54453656  .00007097  00000-0  49511-3 0  9996","REF_FRAME":"TEME","ARG_OF_PERICENTER":"69.8085","MEAN_MOTION":"15.06382273","CLASSIFICATION_TYPE":"U","MEAN_MOTION_DDOT":"0.0000000000000","OBJECT_NAME":"STARLINK-1991","APOAPSIS":"548.280","SITE":"AFETR","COUNTRY_CODE":"US","LAUNCH_DATE":"2021-02-04","OBJECT_TYPE":"PAYLOAD","RCS_SIZE":"LARGE","MEAN_ANOMALY":"290.3061","ECCENTRICITY":"0.00014620","OBJECT_ID":"2021-009AR","EPHEMERIS_TYPE":"0","PERIAPSIS":"546.255"},{"MEAN_MOTION_DOT":"0.00002057","BSTAR":"0.00015697000000","EPOCH":"2022-07-05T12:52:10.352352","SEMIMAJOR_AXIS":"6925.339","NORAD_CAT_ID":"47588","FILE":"3508171","RA_OF_ASC_NODE":"291.2615","CENTER_NAME":"EARTH","MEAN_ELEMENT_THEORY":"SGP4","TLE_LINE2":"2 47588  53.0543 291.2615 0001545  72.2524 287.8633 15.06403179 78353","DECAY_DATE":null,"PERIOD":"95.592","ELEMENT_SET_NO":"999","REV_AT_EPOCH":"7835","INCLINATION":"53.0543","TIME_SYSTEM":"UTC","TLE_LINE1":"1 47588U 21009AS  22186.53623093  .00002057  00000-0  15697-3 0  9999","GP_ID":"207477385","MEAN_MOTION_DDOT":"0.0000000000000","CLASSIFICATION_TYPE":"U","MEAN_MOTION":"15.06403179","ARG_OF_PERICENTER":"72.2524","REF_FRAME":"TEME","LAUNCH_DATE":"2021-02-04","COUNTRY_CODE":"US","SITE":"AFETR","APOAPSIS":"548.274","OBJECT_NAME":"STARLINK-1993","ECCENTRICITY":"0.00015450","OBJECT_ID":"2021-009AS","MEAN_ANOMALY":"287.8633","RCS_SIZE":"LARGE","OBJECT_TYPE":"PAYLOAD","PERIAPSIS":"546.134","EPHEMERIS_TYPE":"0"},{"PERIAPSIS":"546.184","EPHEMERIS_TYPE":"0","MEAN_ANOMALY":"298.1547","OBJECT_ID":"2021-009AT","ECCENTRICITY":"0.00014790","OBJECT_TYPE":"PAYLOAD","RCS_SIZE":"LARGE","LAUNCH_DATE":"2021-02-04","SITE":"AFETR","OBJECT_NAME":"STARLINK-1994","APOAPSIS":"548.233","COUNTRY_CODE":"US","MEAN_MOTION":"15.06401617","MEAN_MOTION_DDOT":"0.0000000000000","CLASSIFICATION_TYPE":"U","REF_FRAME":"TEME","ARG_OF_PERICENTER":"61.9592","TIME_SYSTEM":"UTC","TLE_LINE1":"1 47589U 21009AT  22186.55465432  .00002685  00000-0  19904-3 0  9995","GP_ID":"207475638","TLE_LINE2":"2 47589  53.0540 291.1942 0001479  61.9592 298.1547 15.06401617 78353","DECAY_DATE":null,"PERIOD":"95.592","INCLINATION":"53.0540","ELEMENT_SET_NO":"999","REV_AT_EPOCH":"7835","FILE":"3508171","NORAD_CAT_ID":"47589","RA_OF_ASC_NODE":"291.1942","CENTER_NAME":"EARTH","MEAN_ELEMENT_THEORY":"SGP4","SEMIMAJOR_AXIS":"6925.344","MEAN_MOTION_DOT":"0.00002685","BSTAR":"0.00019904000000","EPOCH":"2022-07-05T13:18:42.133248"},{"TLE_LINE1":"1 47590U 21009AU  22186.54545015 -.00000220  00000-0  41067-5 0  9993","TIME_SYSTEM":"UTC","GP_ID":"207476388","TLE_LINE2":"2 47590  53.0555 311.2426 0001528  58.8313 301.2825 15.06392063 78071","DECAY_DATE":null,"PERIOD":"95.593","ELEMENT_SET_NO":"999","REV_AT_EPOCH":"7807","INCLINATION":"53.0555","NORAD_CAT_ID":"47590","FILE":"3508171","CENTER_NAME":"EARTH","RA_OF_ASC_NODE":"311.2426","MEAN_ELEMENT_THEORY":"SGP4","MEAN_MOTION_DOT":"-0.00000220","BSTAR":"0.00000410670000","EPOCH":"2022-07-05T13:05:26.892960","SEMIMAJOR_AXIS":"6925.373","PERIAPSIS":"546.180","EPHEMERIS_TYPE":"0","ECCENTRICITY":"0.00015280","OBJECT_ID":"2021-009AU","MEAN_ANOMALY":"301.2825","RCS_SIZE":"LARGE","OBJECT_TYPE":"PAYLOAD","LAUNCH_DATE":"2021-02-04","COUNTRY_CODE":"US","SITE":"AFETR","APOAPSIS":"548.296","OBJECT_NAME":"STARLINK-1995","MEAN_MOTION_DDOT":"0.0000000000000","CLASSIFICATION_TYPE":"U","MEAN_MOTION":"15.06392063","REF_FRAME":"TEME","ARG_OF_PERICENTER":"58.8313"},{"OBJECT_TYPE":"PAYLOAD","RCS_SIZE":"LARGE","MEAN_ANOMALY":"297.1720","ECCENTRICITY":"0.00015030","OBJECT_ID":"2021-009AV","EPHEMERIS_TYPE":"0","PERIAPSIS":"546.175","REF_FRAME":"TEME","ARG_OF_PERICENTER":"62.9422","MEAN_MOTION":"15.06399243","CLASSIFICATION_TYPE":"U","MEAN_MOTION_DDOT":"0.0000000000000","OBJECT_NAME":"STARLINK-1996","APOAPSIS":"548.257","SITE":"AFETR","COUNTRY_CODE":"US","LAUNCH_DATE":"2021-02-04","INCLINATION":"53.0532","REV_AT_EPOCH":"7835","ELEMENT_SET_NO":"999","PERIOD":"95.592","DECAY_DATE":null,"TLE_LINE2":"2 47591  53.0532 291.2165 0001503  62.9422 297.1720 15.06399243 78359","GP_ID":"207477140","TLE_LINE1":"1 47591U 21009AV  22186.55097940  .00005318  00000-0  37564-3 0  9991","TIME_SYSTEM":"UTC","SEMIMAJOR_AXIS":"6925.351","BSTAR":"0.00037564000000","EPOCH":"2022-07-05T13:13:24.620160","MEAN_MOTION_DOT":"0.00005318","MEAN_ELEMENT_THEORY":"SGP4","RA_OF_ASC_NODE":"291.2165","CENTER_NAME":"EARTH","FILE":"3508171","NORAD_CAT_ID":"47591"},{"TIME_SYSTEM":"UTC","TLE_LINE1":"1 47592U 21009AW  22186.58230972 -.00000785  00000-0 -33852-4 0  9991","GP_ID":"207476885","PERIOD":"95.593","DECAY_DATE":null,"TLE_LINE2":"2 47592  53.0559 311.0726 0001294  75.4280 284.6852 15.06390418 78072","REV_AT_EPOCH":"7807","ELEMENT_SET_NO":"999","INCLINATION":"53.0559","NORAD_CAT_ID":"47592","FILE":"3508171","CENTER_NAME":"EARTH","RA_OF_ASC_NODE":"311.0726","MEAN_ELEMENT_THEORY":"SGP4","BSTAR":"-0.00003385200000","EPOCH":"2022-07-05T13:58:31.559808","MEAN_MOTION_DOT":"-0.00000785","SEMIMAJOR_AXIS":"6925.378","EPHEMERIS_TYPE":"0","PERIAPSIS":"546.347","ECCENTRICITY":"0.00012940","OBJECT_ID":"2021-009AW","MEAN_ANOMALY":"284.6852","RCS_SIZE":"LARGE","OBJECT_TYPE":"PAYLOAD","LAUNCH_DATE":"2021-02-04","COUNTRY_CODE":"US","OBJECT_NAME":"STARLINK-1997","APOAPSIS":"548.139","SITE":"AFETR","CLASSIFICATION_TYPE":"U","MEAN_MOTION_DDOT":"0.0000000000000","MEAN_MOTION":"15.06390418","REF_FRAME":"TEME","ARG_OF_PERICENTER":"75.4280"}];
